      2.10          N: GNSS NAV DATA                        RINEX VERSION / TYPE
fic2rin                                 01/05/2024 00:17:56 PGM / RUN BY / DATE
                                                            END OF HEADER
8  24  1  4  1 59 44.0 -.160326249897D-03 -.193267624127D-11  .000000000000D+00
     .150000000000D+02  .256250000000D+01  .480698594455D-08 -.272880595262D+01
     .633299350739D-07  .913286244031D-02  .597722828388D-05  .515356894875D+04
     .352784000000D+06 -.115483999252D-06 -.271084254746D+01 -.108033418655D-06
     .955656792907D+00  .264906250000D+03  .293137931606D+00 -.820962767823D-08
    -.135362781260D-09  .100000000000D+01  .229500000000D+04  .000000000000D+00
     .240000000000D+01  .000000000000D+00  .512227416039D-08  .150000000000D+02
     .345600000000D+06  .400000000000D+01
10 24  1  4 18  0  0.0 -.680140219629D-04 -.147792889038D-11  .000000000000D+00
     .390000000000D+02 -.102812500000D+02  .403945397376D-08  .142728917904D+01
    -.467523932457D-06  .927213637624D-02  .778771936893D-05  .515368905830D+04
     .410400000000D+06 -.178813934326D-06 -.585702681668D+00  .949949026108D-07
     .982124884026D+00  .242562500000D+03 -.239792848696D+01 -.794997400547D-08
     .197865384745D-09  .100000000000D+01  .229500000000D+04  .000000000000D+00
     .240000000000D+01  .000000000000D+00  .232830643654D-08  .390000000000D+02
     .403200000000D+06  .400000000000D+01
6  24  1  4 18  0  0.0  .455964822322D-03 -.127329258248D-10  .000000000000D+00
     .340000000000D+02 -.348750000000D+02  .374837042039D-08 -.253434056249D+01
    -.176392495632D-05  .308699836023D-02  .835768878460D-05  .515354294205D+04
     .410400000000D+06  .372529029846D-07 -.162057015998D+01  .521540641785D-07
     .989488692839D+00  .235093750000D+03 -.820239040854D+00 -.773817946909D-08
    -.989326923723D-10  .100000000000D+01  .229500000000D+04  .000000000000D+00
     .240000000000D+01  .000000000000D+00  .372529029846D-08  .340000000000D+02
     .403200000000D+06  .400000000000D+01
8  24  1  4 18  0  0.0 -.160434748977D-03 -.193267624127D-11  .000000000000D+00
     .710000000000D+02  .568750000000D+01  .482662961993D-08 -.607949787457D+00
     .262632966042D-06  .913725618739D-02  .479817390442D-05  .515356688881D+04
     .410400000000D+06  .141561031342D-06 -.271132084414D+01  .335276126862D-07
     .955647790109D+00  .283343750000D+03  .293402589578D+00 -.842820821156D-08
    -.225009372544D-09  .100000000000D+01  .229500000000D+04  .000000000000D+00
     .240000000000D+01  .000000000000D+00  .512227416039D-08  .710000000000D+02
     .403200000000D+06  .400000000000D+01
9  24  1  4 18  0  0.0  .483081676066D-04  .120508047985D-10  .000000000000D+00
     .360000000000D+02 -.366562500000D+02  .477591322167D-08 -.127246005770D+00
    -.211037695408D-05  .290820538066D-02  .662542879581D-05  .515374329758D+04
     .410400000000D+06 -.335276126862D-07  .437797648144D+00 -.111758708954D-07
     .957692934955D+00  .248750000000D+03  .200518900678D+01 -.821641367518D-08
     .335728270144D-10  .100000000000D+01  .229500000000D+04  .000000000000D+00
     .240000000000D+01  .000000000000D+00  .139698386192D-08  .360000000000D+02
     .403200000000D+06  .400000000000D+01
31 24  1  4 18  0  0.0 -.227090902627D-03 -.227373675443D-12  .000000000000D+00
     .560000000000D+02 -.906250000000D+00  .470841040991D-08  .200024046401D+01
    -.633299350739D-07  .106243663467D-01  .990368425846D-05  .515366841888D+04
     .410400000000D+06 -.247731804848D-06  .153083863003D+01 -.391155481339D-07
     .953913373452D+00  .188687500000D+03  .647088633382D+00 -.799211861811D-08
    -.114647632677D-09  .100000000000D+01  .229500000000D+04  .000000000000D+00
     .240000000000D+01  .000000000000D+00 -.135041773319D-07  .560000000000D+02
     .403200000000D+06  .400000000000D+01
29 24  1  4 18  0  0.0 -.609105452895D-03  .454747350886D-12  .000000000000D+00
     .530000000000D+02  .881250000000D+01  .433946647048D-08 -.616982936479D+00
     .344589352608D-06  .252167345025D-02  .490248203278D-05  .515366445923D+04
     .410400000000D+06 -.558793544769D-08 -.260423795884D+01 -.484287738800D-07
     .973679690559D+00  .291375000000D+03  .253396765296D+01 -.812248119109D-08
    -.175364447490D-09  .100000000000D+01  .229500000000D+04  .000000000000D+00
     .240000000000D+01  .000000000000D+00 -.102445483208D-07  .530000000000D+02
     .403200000000D+06  .400000000000D+01
30 24  1  4 18  0  0.0 -.449420418590D-03  .454747350886D-11  .000000000000D+00
     .450000000000D+02 -.562500000000D+00  .512735643212D-08  .275512368502D+01
     .000000000000D+00  .666250113863D-02  .104326754808D-04  .515371262741D+04
     .410400000000D+06 -.149011611938D-07  .151269274339D+01 -.132247805595D-06
     .935030854897D+00  .166125000000D+03 -.254895073705D+01 -.813033866124D-08
    -.789318592573D-10  .100000000000D+01  .229500000000D+04  .000000000000D+00
     .240000000000D+01  .000000000000D+00  .372529029846D-08  .450000000000D+02
     .403200000000D+06  .400000000000D+01
21 24  1  4 18  0  0.0  .139456242323D-03 -.113686837722D-11  .000000000000D+00
     .340000000000D+02 -.325000000000D+02  .442839874630D-08 -.609563501669D+00
    -.183098018169D-05  .251628126716D-01  .774115324020D-05  .515373366165D+04
     .410400000000D+06 -.251457095146D-06 -.172209037390D+01 -.432133674622D-06
     .961705570029D+00  .235843750000D+03 -.656846566147D+00 -.831498920982D-08
     .578595529398D-10  .100000000000D+01  .229500000000D+04  .000000000000D+00
     .240000000000D+01  .000000000000D+00 -.102445483208D-07  .340000000000D+02
     .403200000000D+06  .400000000000D+01
26 24  1  4 18  0  0.0  .203341245651D-03 -.341060513165D-11  .000000000000D+00
     .500000000000D+02  .681875000000D+02  .532486465913D-08  .120686222293D+01
     .381655991077D-05  .873087102082D-02  .751763582230D-05  .515356653214D+04
     .410400000000D+06 -.428408384323D-07  .248075872867D+01  .135973095894D-06
     .932103943493D+00  .219468750000D+03  .512187531329D+00 -.851499754097D-08
    -.971469037013D-10  .100000000000D+01  .229500000000D+04  .000000000000D+00
     .240000000000D+01  .000000000000D+00  .698491930962D-08  .500000000000D+02
     .403200000000D+06  .400000000000D+01
23 24  1  4 18  0  0.0  .128951389343D-03  .727595761418D-11  .000000000000D+00
     .380000000000D+02 -.133750000000D+02  .405766901820D-08  .258630408999D+01
    -.596046447754D-06  .395187060349D-02  .744313001633D-05  .515370420265D+04
     .410400000000D+06 -.128522515297D-06 -.613991153436D+00 -.167638063431D-07
     .977252019475D+00  .243093750000D+03 -.298917734269D+01 -.785354141724D-08
     .301798285396D-09  .100000000000D+01  .229500000000D+04  .000000000000D+00
     .240000000000D+01  .000000000000D+00 -.838190317154D-08  .380000000000D+02
     .403200000000D+06  .400000000000D+01
24 24  1  4 18  0  0.0 -.407425686717D-03 -.750333128963D-11  .000000000000D+00
     .920000000000D+02 -.159062500000D+02  .511592738462D-08 -.237482888906D+01
    -.974163413048D-06  .150384977460D-01  .931136310101D-05  .515362247467D+04
     .410400000000D+06  .162050127983D-06  .141535347474D+01 -.124797224998D-06
     .933567263875D+00  .182187500000D+03  .957528423965D+00 -.806319300721D-08
     .225009372544D-10  .100000000000D+01  .229500000000D+04  .000000000000D+00
     .240000000000D+01  .000000000000D+00  .232830643654D-08  .920000000000D+02
     .403200000000D+06  .400000000000D+01
15 24  1  4 18  0  0.0  .113873742521D-03  .386535248253D-11  .000000000000D+00
     .500000000000D+02 -.244687500000D+02  .525879047830D-08 -.158615777416D+01
    -.983476638794D-06  .154434281867D-01  .578165054321D-05  .515358620071D+04
     .410400000000D+06  .294297933578D-06  .313664448240D+00  .242143869400D-06
     .934393094297D+00  .247875000000D+03  .128406525223D+01 -.837499170916D-08
     .131076888450D-09  .100000000000D+01  .229500000000D+04  .000000000000D+00
     .240000000000D+01  .000000000000D+00 -.102445483208D-07  .500000000000D+02
     .403200000000D+06  .400000000000D+01
25 24  1  4 18  0  0.0  .484075397253D-03  .136424205266D-11  .000000000000D+00
     .500000000000D+02  .638125000000D+02  .476948438245D-08  .202379618659D+01
     .312924385071D-05  .117071133573D-01  .790692865849D-05  .515363321877D+04
     .410400000000D+06 -.143423676491D-06  .254054493411D+01 -.275671482086D-06
     .951378709885D+00  .220156250000D+03  .106394564058D+01 -.808247952486D-08
     .578595529398D-10  .100000000000D+01  .229500000000D+04  .000000000000D+00
     .240000000000D+01  .000000000000D+00  .558793544769D-08  .500000000000D+02
     .403200000000D+06  .400000000000D+01
13 24  1  4 18  0  0.0  .612596515566D-03  .375166564481D-11  .000000000000D+00
     .260000000000D+02 -.364062500000D+02  .454161774804D-08 -.912797547350D+00
    -.177510082722D-05  .775706779677D-02  .704452395439D-05  .515365642166D+04
     .410400000000D+06  .875443220139D-07  .601477284892D+00  .139698386192D-06
     .970858840716D+00  .249500000000D+03  .949671645407D+00 -.810676625078D-08
    -.267868300647D-10  .100000000000D+01  .229500000000D+04  .000000000000D+00
     .240000000000D+01  .000000000000D+00 -.111758708954D-07  .260000000000D+02
     .403200000000D+06  .400000000000D+01
22 24  1  4 18  0  0.0  .539603643119D-04 -.659383658785D-11  .000000000000D+00
     .700000000000D+02  .625937500000D+02  .475305512668D-08 -.235196587282D-01
     .324286520481D-05  .147269946756D-01  .721774995327D-05  .515372222900D+04
     .410400000000D+06 -.108033418655D-06  .264674975989D+01 -.173225998878D-06
     .962461660220D+00  .244312500000D+03 -.114866024220D+01 -.845785230350D-08
     .103575742917D-09  .100000000000D+01  .229500000000D+04  .000000000000D+00
     .340000000000D+01  .000000000000D+00 -.111758708954D-07  .700000000000D+02
     .403200000000D+06  .400000000000D+01
